[{"OBJECT_NAME":"TEVEL2-9","OBJECT_ID":"2025-052AD","EPOCH":"2026-03-04T03:18:19.468512","MEAN_MOTION":15.28379573,"ECCENTRICITY":0.00075396,"INCLINATION":97.407,"RA_OF_ASC_NODE":318.8588,"ARG_OF_PERICENTER":140.8467,"MEAN_ANOMALY":219.3319,"EPHEMERIS_TYPE":0,"CLASSIFICATION_TYPE":"U","NORAD_CAT_ID":63237,"ELEMENT_SET_NO":999,"REV_AT_EPOCH":5396,"BSTAR":0.00096779621,"MEAN_MOTION_DOT":0.00026757,"MEAN_MOTION_DDOT":0},{"OBJECT_NAME":"TEVEL2-7","OBJECT_ID":"2025-052AE","EPOCH":"2026-03-04T05:26:29.869440","MEAN_MOTION":15.28174555,"ECCENTRICITY":0.00077027,"INCLINATION":97.4074,"RA_OF_ASC_NODE":318.9016,"ARG_OF_PERICENTER":140.3363,"MEAN_ANOMALY":219.8441,"EPHEMERIS_TYPE":0,"CLASSIFICATION_TYPE":"U","NORAD_CAT_ID":63238,"ELEMENT_SET_NO":999,"REV_AT_EPOCH":5397,"BSTAR":0.00099947126,"MEAN_MOTION_DOT":0.00027466,"MEAN_MOTION_DDOT":0},{"OBJECT_NAME":"TEVEL2-8","OBJECT_ID":"2025-052AF","EPOCH":"2026-03-04T05:36:29.759328","MEAN_MOTION":15.28151948,"ECCENTRICITY":0.00076074,"INCLINATION":97.407,"RA_OF_ASC_NODE":318.8892,"ARG_OF_PERICENTER":140.5842,"MEAN_ANOMALY":219.5953,"EPHEMERIS_TYPE":0,"CLASSIFICATION_TYPE":"U","NORAD_CAT_ID":63239,"ELEMENT_SET_NO":999,"REV_AT_EPOCH":5397,"BSTAR":0.0010063928,"MEAN_MOTION_DOT":0.00027638,"MEAN_MOTION_DDOT":0},{"OBJECT_NAME":"HADES-ICM","OBJECT_ID":"2025-052BN","EPOCH":"2026-03-04T16:21:40.982112","MEAN_MOTION":15.55263348,"ECCENTRICITY":0.0008515,"INCLINATION":97.3953,"RA_OF_ASC_NODE":323.9519,"ARG_OF_PERICENTER":120.9814,"MEAN_ANOMALY":239.2278,"EPHEMERIS_TYPE":0,"CLASSIFICATION_TYPE":"U","NORAD_CAT_ID":63492,"ELEMENT_SET_NO":999,"REV_AT_EPOCH":5436,"BSTAR":0.0023438,"MEAN_MOTION_DOT":0.00161747,"MEAN_MOTION_DDOT":0}]
